#aV2013  2 25  0  0  0.00000000     288 DD+AD WGS84 FIT  NGA
## 1729  86400.00000000   300.00000000 56348 0.0000000000000
+   31     1  2  3  4  5  6  7  8  9 10 11 12 13 14 15 16 17
+         18 19 20 21 22 23 24 25 26 28 29 30 31 32  0  0  0
+          0  0  0  0  0  0  0  0  0  0  0  0  0  0  0  0  0
+          0  0  0  0  0  0  0  0  0  0  0  0  0  0  0  0  0
+          0  0  0  0  0  0  0  0  0  0  0  0  0  0  0  0  0
++         2  2  2  2  2  2  2  2  2  2  2  2  2  2  2  2  2
++         2  2  2  2  2  2  2  2  2  2  2  2  2  2  2  0  0
++         0  0  0  0  0  0  0  0  0  0  0  0  0  0  0  0  0
++         0  0  0  0  0  0  0  0  0  0  0  0  0  0  0  0  0
++         0  0  0  0  0  0  0  0  0  0  0  0  0  0  0  0  0
%c cc cc ccc ccc cccc cccc cccc cccc ccccc ccccc ccccc ccccc
%c cc cc ccc ccc cccc cccc cccc cccc ccccc ccccc ccccc ccccc
%f  0.0000000  0.000000000  0.00000000000  0.000000000000000
%f  0.0000000  0.000000000  0.00000000000  0.000000000000000
%i    0    0    0    0      0      0      0      0         0
%i    0    0    0    0      0      0      0      0         0
/*      NGA, ST. LOUIS,MO.                                  
/*   EPHEMERIS COMPUTED FROM  1 DAYS OF DATA
/*   EPOCHA SMOOTHER  
/* CCCCCCCCCCCCCCCCCCCCCCCCCCCCCCCCCCCCCCCCCCCCCCCCCCCCCCCCC
*  2013  2 25 18 45  0.00000000                                                 
P  1 -13774.081713   9642.656432  20523.994062      3.134096                    
V  1  -2595.733746 -26012.949443  10539.786210      0.028231                    
P  2  13675.882211  15330.840460 -16918.933471    420.022049                    
V  2   -108.451956  21788.555791  18931.983105      0.015497                    
P  3 -25048.100411  -9183.119380  -1099.909099    173.186903                    
V  3   1853.138813  -3039.035255 -30952.195318      0.050073                    
P  4   7230.247189  24302.829653  -7678.344621    145.150356                    
V  4  -2852.758807   9696.041504  29345.551483      0.110295                    
P  5  19566.871878   2370.820186 -17898.094887   -385.406087                    
V  5 -17899.110788  13985.046769 -17606.129917     -0.017264                    
P  6 -22416.872997 -13593.889873  -5205.247205    336.849107                    
V  6   7356.054995   -241.844853 -30142.460644     -0.147603                    
P  7  -6750.555747  22829.082396 -11429.980972    184.787376                    
V  7  -2849.196518 -14546.281446 -27549.349418      0.043342                    
P  8  -1520.753088  26182.079577   -493.486437      4.822531                    
V  8  -2070.487835   -858.080643 -32966.165281      0.001049                    
P  9  13324.161485  12393.040923  18771.106484    223.116269                    
V  9    451.392096  24997.542736 -16410.229230      0.026088                    
P 10   4592.283768  15431.116685 -21361.119061    -71.175263                    
V 10 -22797.006339  13685.781092   5468.880112     -0.014065                    
P 11 -16541.721918   2541.126458  20217.998618   -357.009653                    
V 11  -8805.695644 -25484.509932  -3636.695895     -0.036723                    
P 12  23614.226689 -10870.266016   4853.408070    119.821043                    
V 12  -4092.134975   5184.032105  31578.662495      0.020441                    
P 13 -11647.452574   9914.838141 -21866.322448    141.977661                    
V 13 -23012.920107 -14784.776808   5477.329970     -0.029423                    
P 14  -8273.161728 -18539.681891  17393.933085    220.694856                    
V 14  19306.055149   9819.568160  19732.704874      0.001883                    
P 15  24028.010245   2013.860534  11394.143178   -109.583285                    
V 15  11965.424696   8552.891166 -26429.756389     -0.013029                    
P 16 -18592.768052  -3474.629980 -18792.064432   -252.497719                    
V 16  19852.938038 -12921.123341 -16934.807811     -0.000970                    
P 17  10132.590544  18537.235017  16452.614516     46.031998                    
V 17 -18650.147362  -8402.113243  20991.672021     -0.038308                    
P 18  11094.321556 -19804.180465  13891.692877    241.189754                    
V 18  16067.746631  -6930.515285 -23720.981524      0.018686                    
P 19 -23993.111169  -7050.968175   9461.512113   -351.674721                    
V 19  -9054.400406  -8173.515611 -28401.350612     -0.032051                    
P 20 -22485.903042  13646.596361   3217.359467     85.672952                    
V 20   1170.005136  -5692.037753  30705.280639      0.016440                    
P 21   3776.824750 -24853.817003  -7120.184977   -282.772865                    
V 21   4665.537465   9666.615016 -29612.384067     -0.022425                    
P 22   -572.915187 -17639.462910  19998.565810    159.453577                    
V 22  21802.906352 -12641.542901 -10760.393320      0.008625                    
P 23 -19544.238041   3967.734594 -17669.021955    110.419836                    
V 23 -19253.737792 -11587.649538  18251.653941     -0.036904                    
P 24  14646.126375  -5653.328632  21416.216564     -1.682803                    
V 24   2422.893324  27107.578141   5531.306515     -0.006656                    
P 25  18838.741474 -17667.790096  -6021.328580     73.182482                    
V 25   7679.048558  -2221.836647  30820.569683      0.031025                    
P 26  22871.468408  13838.556628    356.520160    -87.855892                    
V 26     23.196852   2284.945563 -31942.138294      0.141996                    
P 28  -4237.374837  17804.233899  19762.847588    235.912580                    
V 28 -21053.123943  11256.597911 -15287.640716      0.034911                    
P 29  11088.954232 -10849.460422 -21497.996223    411.338874                    
V 29  23713.074189  13775.748783   5306.635542      0.036445                    
P 30 -10165.371648 -11493.458063 -22030.151350   -217.670461                    
V 30  20938.470135 -17253.968669   -691.693648      0.086144                    
P 31  -8096.439994 -22648.900411 -10763.796611    304.057202                    
V 31   1603.990747 -14081.058425  28227.786510      0.016753                    
P 32 -23896.798273   4862.744984  10014.389848   -538.590923                    
V 32   9626.161008  -8874.528144  28189.713703     -0.031934                    
EOF
